IRIDIUM 33 DEB          
1 33855U 97051Y   17345.72448796  .00005925  00000-0  12632-2 0  9990
2 33855  86.3321 246.6043 0049017 318.5333  41.2160 14.58038181282725
